ONEWEB-0627             
1 55168U 23004AE  25232.27886238 -.00000011  00000+0 -60899-4 0  9991
2 55168  87.9020  65.7644 0001991 105.8196 254.3155 13.17649584127952
ONEWEB-0628             
1 55169U 23004AF  25232.19100173  .00000236  00000+0  61923-3 0  9995
2 55169  87.8867  50.4661 0002255 105.4141 254.7237 13.12442566128559
ONEWEB-0629             
1 55170U 23004AG  25232.25438614 -.00000183  00000+0 -50517-3 0  9998
2 55170  87.9030  65.7619 0002158  88.8059 271.3320 13.17646329127959
ONEWEB-0631             
1 55171U 23004AH  25232.17491225  .00000074  00000+0  15386-3 0  9999
2 55171  87.9144  35.2113 0001376 106.1156 254.0127 13.18687911130006
ONEWEB-0709             
1 55172U 23004AJ  25232.28988361 -.00000248  00000+0 -73425-3 0  9997
2 55172  87.8777  81.0565 0000870  67.8374 292.2846 13.11416840126440
ONEWEB-0710             
1 55173U 23004AK  25232.26874711 -.00000002  00000+0 -38270-4 0  9997
2 55173  87.9021  65.7564 0001827  94.0388 266.0952 13.17648357127952
ONEWEB-0711             
1 55174U 23004AL  25232.10845857  .00001574  00000+0  44045-2 0  9998
2 55174  87.8777  81.0603 0002107 106.5902 253.5457 13.11423657126383
ONEWEB-0713             
1 55175U 23004AM  25232.27970256  .00000189  00000+0  49705-3 0  9999
2 55175  87.8776  81.0337 0001794  94.1457 265.9876 13.11415529126386
ONEWEB-0715             
1 55176U 23004AN  25232.27461714  .00000392  00000+0  10693-2 0  9993
2 55176  87.8775  81.0351 0001388  87.8760 272.2527 13.11414610126437
ONEWEB-0716             
1 55177U 23004AP  25232.26198024 -.00000049  00000+0 -15925-3 0  9999
2 55177  87.9022  65.7575 0001861  81.9548 278.1794 13.17647815127956
ONEWEB-0717             
1 55178U 23004AQ  25232.24508942  .00000096  00000+0  21415-3 0  9993
2 55178  87.9028  65.7207 0001893 111.5615 248.5718 13.17652572128005
ONEWEB-0719             
1 55179U 23004AR  25231.57181702  .00000090  00000+0  19865-3 0  9990
2 55179  87.9031  65.8388 0001984  85.1284 275.0074 13.17649151127862
ONEWEB-0530             
1 55796U 23029A   25232.26023756  .00000010  00000+0 -77057-5 0  9995
2 55796  87.9301 334.4563 0002319 108.7730 251.3655 13.20770670122130
ONEWEB-0534             
1 55797U 23029B   25231.79308242 -.00000077  00000+0 -22026-3 0  9997
2 55797  87.9294 334.5546 0001968  96.2493 263.8865 13.20770250121369
ONEWEB-0556             
1 55798U 23029C   25231.79938357 -.00000079  00000+0 -22552-3 0  9990
2 55798  87.9302 334.5473 0002680  93.6516 266.4924 13.20769688121366
ONEWEB-0562             
1 55799U 23029D   25231.78676739 -.00000007  00000+0 -48383-4 0  9995
2 55799  87.9289 334.5393 0002833 107.1370 253.0073 13.20772586121369
ONEWEB-0563             
1 55800U 23029E   25231.78045230  .00000031  00000+0  43742-4 0  9993
2 55800  87.9298 334.5592 0002019  93.1814 266.9551 13.20773350121359
