[{"OBJECT_NAME":"ONEWEB-0627","OBJECT_ID":"2023-004AE","EPOCH":"2025-08-20T06:41:33.709632","MEAN_MOTION":13.17649584,"ECCENTRICITY":0.0001991,"INCLINATION":87.902,"RA_OF_ASC_NODE":65.7644,"ARG_OF_PERICENTER":105.8196,"MEAN_ANOMALY":254.3155,"EPHEMERIS_TYPE":0,"CLASSIFICATION_TYPE":"U","NORAD_CAT_ID":55168,"ELEMENT_SET_NO":999,"REV_AT_EPOCH":12795,"BSTAR":-6.0899e-5,"MEAN_MOTION_DOT":-1.1e-7,"MEAN_MOTION_DDOT":0},{"OBJECT_NAME":"ONEWEB-0628","OBJECT_ID":"2023-004AF","EPOCH":"2025-08-20T04:35:02.549472","MEAN_MOTION":13.12442566,"ECCENTRICITY":0.0002255,"INCLINATION":87.8867,"RA_OF_ASC_NODE":50.4661,"ARG_OF_PERICENTER":105.4141,"MEAN_ANOMALY":254.7237,"EPHEMERIS_TYPE":0,"CLASSIFICATION_TYPE":"U","NORAD_CAT_ID":55169,"ELEMENT_SET_NO":999,"REV_AT_EPOCH":12855,"BSTAR":0.00061923,"MEAN_MOTION_DOT":2.36e-6,"MEAN_MOTION_DDOT":0},{"OBJECT_NAME":"ONEWEB-0629","OBJECT_ID":"2023-004AG","EPOCH":"2025-08-20T06:06:18.962496","MEAN_MOTION":13.17646329,"ECCENTRICITY":0.0002158,"INCLINATION":87.903,"RA_OF_ASC_NODE":65.7619,"ARG_OF_PERICENTER":88.8059,"MEAN_ANOMALY":271.332,"EPHEMERIS_TYPE":0,"CLASSIFICATION_TYPE":"U","NORAD_CAT_ID":55170,"ELEMENT_SET_NO":999,"REV_AT_EPOCH":12795,"BSTAR":-0.00050517,"MEAN_MOTION_DOT":-1.83e-6,"MEAN_MOTION_DDOT":0},{"OBJECT_NAME":"ONEWEB-0631","OBJECT_ID":"2023-004AH","EPOCH":"2025-08-20T04:11:52.418400","MEAN_MOTION":13.18687911,"ECCENTRICITY":0.0001376,"INCLINATION":87.9144,"RA_OF_ASC_NODE":35.2113,"ARG_OF_PERICENTER":106.1156,"MEAN_ANOMALY":254.0127,"EPHEMERIS_TYPE":0,"CLASSIFICATION_TYPE":"U","NORAD_CAT_ID":55171,"ELEMENT_SET_NO":999,"REV_AT_EPOCH":13000,"BSTAR":0.00015386,"MEAN_MOTION_DOT":7.4e-7,"MEAN_MOTION_DDOT":0},{"OBJECT_NAME":"ONEWEB-0709","OBJECT_ID":"2023-004AJ","EPOCH":"2025-08-20T06:57:25.943904","MEAN_MOTION":13.1141684,"ECCENTRICITY":8.7e-5,"INCLINATION":87.8777,"RA_OF_ASC_NODE":81.0565,"ARG_OF_PERICENTER":67.8374,"MEAN_ANOMALY":292.2846,"EPHEMERIS_TYPE":0,"CLASSIFICATION_TYPE":"U","NORAD_CAT_ID":55172,"ELEMENT_SET_NO":999,"REV_AT_EPOCH":12644,"BSTAR":-0.00073425,"MEAN_MOTION_DOT":-2.48e-6,"MEAN_MOTION_DDOT":0},{"OBJECT_NAME":"ONEWEB-0710","OBJECT_ID":"2023-004AK","EPOCH":"2025-08-20T06:26:59.750304","MEAN_MOTION":13.17648357,"ECCENTRICITY":0.0001827,"INCLINATION":87.9021,"RA_OF_ASC_NODE":65.7564,"ARG_OF_PERICENTER":94.0388,"MEAN_ANOMALY":266.0952,"EPHEMERIS_TYPE":0,"CLASSIFICATION_TYPE":"U","NORAD_CAT_ID":55173,"ELEMENT_SET_NO":999,"REV_AT_EPOCH":12795,"BSTAR":-3.827e-5,"MEAN_MOTION_DOT":-2.0e-8,"MEAN_MOTION_DDOT":0},{"OBJECT_NAME":"ONEWEB-0711","OBJECT_ID":"2023-004AL","EPOCH":"2025-08-20T02:36:10.820448","MEAN_MOTION":13.11423657,"ECCENTRICITY":0.0002107,"INCLINATION":87.8777,"RA_OF_ASC_NODE":81.0603,"ARG_OF_PERICENTER":106.5902,"MEAN_ANOMALY":253.5457,"EPHEMERIS_TYPE":0,"CLASSIFICATION_TYPE":"U","NORAD_CAT_ID":55174,"ELEMENT_SET_NO":999,"REV_AT_EPOCH":12638,"BSTAR":0.0044045,"MEAN_MOTION_DOT":1.574e-5,"MEAN_MOTION_DDOT":0},{"OBJECT_NAME":"ONEWEB-0713","OBJECT_ID":"2023-004AM","EPOCH":"2025-08-20T06:42:46.301184","MEAN_MOTION":13.11415529,"ECCENTRICITY":0.0001794,"INCLINATION":87.8776,"RA_OF_ASC_NODE":81.0337,"ARG_OF_PERICENTER":94.1457,"MEAN_ANOMALY":265.9876,"EPHEMERIS_TYPE":0,"CLASSIFICATION_TYPE":"U","NORAD_CAT_ID":55175,"ELEMENT_SET_NO":999,"REV_AT_EPOCH":12638,"BSTAR":0.00049705,"MEAN_MOTION_DOT":1.89e-6,"MEAN_MOTION_DDOT":0},{"OBJECT_NAME":"ONEWEB-0715","OBJECT_ID":"2023-004AN","EPOCH":"2025-08-20T06:35:26.920896","MEAN_MOTION":13.1141461,"ECCENTRICITY":0.0001388,"INCLINATION":87.8775,"RA_OF_ASC_NODE":81.0351,"ARG_OF_PERICENTER":87.876,"MEAN_ANOMALY":272.2527,"EPHEMERIS_TYPE":0,"CLASSIFICATION_TYPE":"U","NORAD_CAT_ID":55176,"ELEMENT_SET_NO":999,"REV_AT_EPOCH":12643,"BSTAR":0.0010693,"MEAN_MOTION_DOT":3.92e-6,"MEAN_MOTION_DDOT":0},{"OBJECT_NAME":"ONEWEB-0716","OBJECT_ID":"2023-004AP","EPOCH":"2025-08-20T06:17:15.092736","MEAN_MOTION":13.17647815,"ECCENTRICITY":0.0001861,"INCLINATION":87.9022,"RA_OF_ASC_NODE":65.7575,"ARG_OF_PERICENTER":81.9548,"MEAN_ANOMALY":278.1794,"EPHEMERIS_TYPE":0,"CLASSIFICATION_TYPE":"U","NORAD_CAT_ID":55177,"ELEMENT_SET_NO":999,"REV_AT_EPOCH":12795,"BSTAR":-0.00015925,"MEAN_MOTION_DOT":-4.9e-7,"MEAN_MOTION_DDOT":0},{"OBJECT_NAME":"ONEWEB-0717","OBJECT_ID":"2023-004AQ","EPOCH":"2025-08-20T05:52:55.725888","MEAN_MOTION":13.17652572,"ECCENTRICITY":0.0001893,"INCLINATION":87.9028,"RA_OF_ASC_NODE":65.7207,"ARG_OF_PERICENTER":111.5615,"MEAN_ANOMALY":248.5718,"EPHEMERIS_TYPE":0,"CLASSIFICATION_TYPE":"U","NORAD_CAT_ID":55178,"ELEMENT_SET_NO":999,"REV_AT_EPOCH":12800,"BSTAR":0.00021415,"MEAN_MOTION_DOT":9.6e-7,"MEAN_MOTION_DDOT":0},{"OBJECT_NAME":"ONEWEB-0719","OBJECT_ID":"2023-004AR","EPOCH":"2025-08-19T13:43:24.990528","MEAN_MOTION":13.17649151,"ECCENTRICITY":0.0001984,"INCLINATION":87.9031,"RA_OF_ASC_NODE":65.8388,"ARG_OF_PERICENTER":85.1284,"MEAN_ANOMALY":275.0074,"EPHEMERIS_TYPE":0,"CLASSIFICATION_TYPE":"U","NORAD_CAT_ID":55179,"ELEMENT_SET_NO":999,"REV_AT_EPOCH":12786,"BSTAR":0.00019865,"MEAN_MOTION_DOT":9.0e-7,"MEAN_MOTION_DDOT":0},{"OBJECT_NAME":"ONEWEB-0530","OBJECT_ID":"2023-029A","EPOCH":"2025-08-20T06:14:44.525184","MEAN_MOTION":13.2077067,"ECCENTRICITY":0.0002319,"INCLINATION":87.9301,"RA_OF_ASC_NODE":334.4563,"ARG_OF_PERICENTER":108.773,"MEAN_ANOMALY":251.3655,"EPHEMERIS_TYPE":0,"CLASSIFICATION_TYPE":"U","NORAD_CAT_ID":55796,"ELEMENT_SET_NO":999,"REV_AT_EPOCH":12213,"BSTAR":-7.7057e-6,"MEAN_MOTION_DOT":1.0e-7,"MEAN_MOTION_DDOT":0},{"OBJECT_NAME":"ONEWEB-0534","OBJECT_ID":"2023-029B","EPOCH":"2025-08-19T19:02:02.321088","MEAN_MOTION":13.2077025,"ECCENTRICITY":0.0001968,"INCLINATION":87.9294,"RA_OF_ASC_NODE":334.5546,"ARG_OF_PERICENTER":96.2493,"MEAN_ANOMALY":263.8865,"EPHEMERIS_TYPE":0,"CLASSIFICATION_TYPE":"U","NORAD_CAT_ID":55797,"ELEMENT_SET_NO":999,"REV_AT_EPOCH":12136,"BSTAR":-0.00022026,"MEAN_MOTION_DOT":-7.7e-7,"MEAN_MOTION_DDOT":0},{"OBJECT_NAME":"ONEWEB-0556","OBJECT_ID":"2023-029C","EPOCH":"2025-08-19T19:11:06.740448","MEAN_MOTION":13.20769688,"ECCENTRICITY":0.000268,"INCLINATION":87.9302,"RA_OF_ASC_NODE":334.5473,"ARG_OF_PERICENTER":93.6516,"MEAN_ANOMALY":266.4924,"EPHEMERIS_TYPE":0,"CLASSIFICATION_TYPE":"U","NORAD_CAT_ID":55798,"ELEMENT_SET_NO":999,"REV_AT_EPOCH":12136,"BSTAR":-0.00022552,"MEAN_MOTION_DOT":-7.9e-7,"MEAN_MOTION_DDOT":0},{"OBJECT_NAME":"ONEWEB-0562","OBJECT_ID":"2023-029D","EPOCH":"2025-08-19T18:52:56.702496","MEAN_MOTION":13.20772586,"ECCENTRICITY":0.0002833,"INCLINATION":87.9289,"RA_OF_ASC_NODE":334.5393,"ARG_OF_PERICENTER":107.137,"MEAN_ANOMALY":253.0073,"EPHEMERIS_TYPE":0,"CLASSIFICATION_TYPE":"U","NORAD_CAT_ID":55799,"ELEMENT_SET_NO":999,"REV_AT_EPOCH":12136,"BSTAR":-4.8383e-5,"MEAN_MOTION_DOT":-7.0e-8,"MEAN_MOTION_DDOT":0},{"OBJECT_NAME":"ONEWEB-0563","OBJECT_ID":"2023-029E","EPOCH":"2025-08-19T18:43:51.078720","MEAN_MOTION":13.2077335,"ECCENTRICITY":0.0002019,"INCLINATION":87.9298,"RA_OF_ASC_NODE":334.5592,"ARG_OF_PERICENTER":93.1814,"MEAN_ANOMALY":266.9551,"EPHEMERIS_TYPE":0,"CLASSIFICATION_TYPE":"U","NORAD_CAT_ID":55800,"ELEMENT_SET_NO":999,"REV_AT_EPOCH":12135,"BSTAR":4.3742e-5,"MEAN_MOTION_DOT":3.1e-7,"MEAN_MOTION_DDOT":0}]
